OBJECT_NAME,OBJECT_ID,EPOCH,MEAN_MOTION,ECCENTRICITY,INCLINATION,RA_OF_ASC_NODE,ARG_OF_PERICENTER,MEAN_ANOMALY,EPHEMERIS_TYPE,CLASSIFICATION_TYPE,NORAD_CAT_ID,ELEMENT_SET_NO,REV_AT_EPOCH,BSTAR,MEAN_MOTION_DOT,MEAN_MOTION_DDOT
STARLINK-37570,2026-133M,2026-06-25T04:00:00.999072,15.85536352,.000078,53.1572,281.8358,80.4497,239.3591,0,U,69519,999,314,-.87608E-2,-.1888383E-1,0
STARLINK-37510,2026-133N,2026-06-25T04:00:00.999072,15.84646269,.0000828,53.1569,281.8642,70.1815,236.2067,0,U,69520,999,314,-.89098E-2,-.1845068E-1,0
STARLINK-37586,2026-133P,2026-06-25T04:00:00.999072,15.87268929,.0001107,53.1568,281.7931,59.6437,280.7707,0,U,69521,999,314,-.24556E-2,-.614647E-2,0
STARLINK-37379,2026-133Q,2026-06-25T04:00:00.999072,15.86344686,.0000794,53.1570,281.7769,75.0004,273.0703,0,U,69522,999,319,-.75741E-2,-.1686362E-1,0
STARLINK-37429,2026-133R,2026-06-25T04:00:00.999072,15.86595547,.0000904,53.1566,281.7597,76.2259,280.0118,0,U,69523,999,319,-.7428E-2,-.1676213E-1,0
STARLINK-37352,2026-133S,2026-06-25T04:00:00.999072,15.87049696,.0000958,53.1568,281.7330,74.3534,294.6932,0,U,69524,999,319,-.72304E-2,-.1669909E-1,0
STARLINK-37490,2026-133T,2026-06-25T04:00:00.999072,15.89193364,.0000792,53.1565,281.6741,77.5043,319.8806,0,U,69525,999,319,-.30099E-2,-.811422E-2,0
STARLINK-37438,2026-133U,2026-06-25T04:00:00.999072,15.87430029,.0000736,53.1568,281.7109,81.8241,298.2092,0,U,69526,999,319,-.70841E-2,-.1667644E-1,0
STARLINK-37484,2026-133V,2026-06-25T04:00:00.999072,15.88259273,.0000907,53.1564,281.6581,61.7171,343.2956,0,U,69527,999,319,-.16674E-2,-.446932E-2,0
STARLINK-37523,2026-133W,2026-06-25T04:00:00.999072,15.88573479,.0000945,53.1565,281.6397,74.7057,339.1998,0,U,69528,999,319,-.66213E-2,-.1653453E-1,0
STARLINK-37369,2026-133X,2026-06-25T04:00:00.999072,15.88882696,.0001023,53.1561,281.6202,56.3845,6.7282,0,U,69529,999,319,-.65274E-2,-.1655569E-1,0
STARLINK-37670,2026-133Y,2026-06-25T04:00:00.999072,15.89507325,.0000939,53.1559,281.5867,74.4900,4.9540,0,U,69530,999,319,-.62979E-2,-.1649884E-1,0
STARLINK-37897,2026-133Z,2026-06-25T04:00:00.999072,15.89909295,.0001045,53.1556,281.5598,70.6205,21.3974,0,U,69531,999,314,-.60839E-2,-.163002E-1,0
STARLINK-37933,2026-133AA,2026-06-25T04:00:00.999072,15.90780953,.0000939,53.1555,281.5221,73.6873,36.3354,0,U,69532,999,314,-.67385E-2,-.2132543E-1,.12119E-2
STARLINK-37890,2026-133AB,2026-06-25T04:00:00.999072,15.92096182,.0000853,53.1556,281.5021,71.8470,47.7376,0,U,69533,999,314,-.31519E-2,-.1076521E-1,.3501E-3
STARLINK-37407,2026-133AC,2026-06-25T04:00:00.999072,15.93030736,.0000974,53.1550,281.4651,72.6818,64.3218,0,U,69534,999,319,-.61295E-2,-.21791E-1,.12917E-2
STARLINK-37888,2026-133AD,2026-06-25T04:00:00.999072,15.92908153,.0000688,53.1553,281.4404,64.5226,84.2476,0,U,69535,999,314,-.12677E-2,-.455288E-2,.77349E-4
STARLINK-37889,2026-133AE,2026-06-25T04:00:00.999072,15.86347005,.0000492,53.1582,281.8190,87.9356,241.1446,0,U,69536,999,314,-.83358E-2,-.1871992E-1,0
2026-134A,2026-134A,2026-06-25T03:28:06.534048,15.09274145,.0014531,97.7010,246.2773,241.4976,118.4790,0,U,69538,999,151,.38318E-3,.6053E-4,0
2026-134B,2026-134B,2026-06-25T03:26:37.150656,15.09430899,.0014634,97.6985,246.2759,244.2143,115.7576,0,U,69539,999,150,.3774E-3,.5987E-4,0
2026-134C,2026-134C,2026-06-25T03:26:19.466304,15.09462363,.0014067,97.6989,246.2767,245.4953,114.4810,0,U,69540,999,150,.37982E-3,.603E-4,0
2026-134D,2026-134D,2026-06-25T03:25:46.668864,15.09519602,.0015077,97.7028,246.2815,245.1911,114.7750,0,U,69541,999,150,.38247E-3,.6084E-4,0
2026-134E,2026-134E,2026-06-25T03:25:34.110624,15.09541826,.0014838,97.7049,246.2841,245.9020,114.0657,0,U,69542,999,150,.38398E-3,.6111E-4,0
2026-134F,2026-134F,2026-06-25T03:25:08.016960,15.09587855,.0014135,97.7001,246.2791,247.8393,112.1336,0,U,69543,999,150,.37787E-3,.6019E-4,0
2026-134G,2026-134G,2026-06-25T03:24:20.306016,15.09671273,.0014618,97.7048,246.2848,248.6000,111.3669,0,U,69544,999,150,.3757E-3,.5999E-4,0
2026-134H,2026-134H,2026-06-25T04:59:09.371904,15.09738918,.0014478,97.7032,246.3503,249.7774,110.1899,0,U,69545,999,150,.3959E-3,.6337E-4,0
STARLINK-37880,2026-135A,2026-06-25T04:00:00.999072,15.80863032,.0001149,97.2837,203.6231,88.8710,126.4427,0,U,69546,999,259,-.37872E-3,-.72242E-3,0
STARLINK-37881,2026-135B,2026-06-25T04:00:00.999072,15.80872739,.0001104,97.2837,203.6240,72.7731,145.7748,0,U,69547,999,259,-.53249E-3,-.101225E-2,0
STARLINK-37265,2026-135C,2026-06-25T04:00:00.999072,15.80868310,.0001193,97.2837,203.6252,81.8787,140.4961,0,U,69548,999,259,-.461E-3,-.87772E-3,0
