STARLINK-37570          
1 69519U 26133M   26176.16667823 -.01888383  00000+0 -87608-2 0  9997
2 69519  53.1572 281.8358 0000780  80.4497 239.3591 15.85536352  3140
STARLINK-37510          
1 69520U 26133N   26176.16667823 -.01845068  00000+0 -89098-2 0  9997
2 69520  53.1569 281.8642 0000828  70.1815 236.2067 15.84646269  3149
STARLINK-37586          
1 69521U 26133P   26176.16667823 -.00614647  00000+0 -24556-2 0  9992
2 69521  53.1568 281.7931 0001107  59.6437 280.7707 15.87268929  3143
STARLINK-37379          
1 69522U 26133Q   26176.16667823 -.01686362  00000+0 -75741-2 0  9999
2 69522  53.1570 281.7769 0000794  75.0004 273.0703 15.86344686  3199
STARLINK-37429          
1 69523U 26133R   26176.16667823 -.01676213  00000+0 -74280-2 0  9991
2 69523  53.1566 281.7597 0000904  76.2259 280.0118 15.86595547  3194
STARLINK-37352          
1 69524U 26133S   26176.16667823 -.01669909  00000+0 -72304-2 0  9991
2 69524  53.1568 281.7330 0000958  74.3534 294.6932 15.87049696  3191
STARLINK-37490          
1 69525U 26133T   26176.16667823 -.00811422  00000+0 -30099-2 0  9995
2 69525  53.1565 281.6741 0000792  77.5043 319.8806 15.89193364  3194
STARLINK-37438          
1 69526U 26133U   26176.16667823 -.01667644  00000+0 -70841-2 0  9991
2 69526  53.1568 281.7109 0000736  81.8241 298.2092 15.87430029  3190
STARLINK-37484          
1 69527U 26133V   26176.16667823 -.00446932  00000+0 -16674-2 0  9990
2 69527  53.1564 281.6581 0000907  61.7171 343.2956 15.88259273  3190
STARLINK-37523          
1 69528U 26133W   26176.16667823 -.01653453  00000+0 -66213-2 0  9994
2 69528  53.1565 281.6397 0000945  74.7057 339.1998 15.88573479  3193
STARLINK-37369          
1 69529U 26133X   26176.16667823 -.01655569  00000+0 -65274-2 0  9991
2 69529  53.1561 281.6202 0001023  56.3845   6.7282 15.88882696  3191
STARLINK-37670          
1 69530U 26133Y   26176.16667823 -.01649884  00000+0 -62979-2 0  9995
2 69530  53.1559 281.5867 0000939  74.4900   4.9540 15.89507325  3195
STARLINK-37897          
1 69531U 26133Z   26176.16667823 -.01630020  00000+0 -60839-2 0  9991
2 69531  53.1556 281.5598 0001045  70.6205  21.3974 15.89909295  3140
STARLINK-37933          
1 69532U 26133AA  26176.16667823 -.02132543  12119-2 -67385-2 0  9990
2 69532  53.1555 281.5221 0000939  73.6873  36.3354 15.90780953  3146
STARLINK-37890          
1 69533U 26133AB  26176.16667823 -.01076521  35010-3 -31519-2 0  9999
2 69533  53.1556 281.5021 0000853  71.8470  47.7376 15.92096182  3140
STARLINK-37407          
1 69534U 26133AC  26176.16667823 -.02179100  12917-2 -61295-2 0  9992
2 69534  53.1550 281.4651 0000974  72.6818  64.3218 15.93030736  3191
STARLINK-37888          
1 69535U 26133AD  26176.16667823 -.00455288  77349-4 -12677-2 0  9997
2 69535  53.1553 281.4404 0000688  64.5226  84.2476 15.92908153  3144
STARLINK-37889          
1 69536U 26133AE  26176.16667823 -.01871992  00000+0 -83358-2 0  9992
2 69536  53.1582 281.8190 0000492  87.9356 241.1446 15.86347005  3146
2026-134A               
1 69538U 26134A   26176.14452007  .00006053  00000+0  38318-3 0  9991
2 69538  97.7010 246.2773 0014531 241.4976 118.4790 15.09274145  1510
2026-134B               
1 69539U 26134B   26176.14348554  .00005987  00000+0  37740-3 0  9996
2 69539  97.6985 246.2759 0014634 244.2143 115.7576 15.09430899  1507
2026-134C               
1 69540U 26134C   26176.14328086  .00006030  00000+0  37982-3 0  9994
2 69540  97.6989 246.2767 0014067 245.4953 114.4810 15.09462363  1502
2026-134D               
1 69541U 26134D   26176.14290126  .00006084  00000+0  38247-3 0  9992
2 69541  97.7028 246.2815 0015077 245.1911 114.7750 15.09519602  1500
2026-134E               
1 69542U 26134E   26176.14275591  .00006111  00000+0  38398-3 0  9990
2 69542  97.7049 246.2841 0014838 245.9020 114.0657 15.09541826  1508
2026-134F               
1 69543U 26134F   26176.14245390  .00006019  00000+0  37787-3 0  9993
2 69543  97.7001 246.2791 0014135 247.8393 112.1336 15.09587855  1500
2026-134G               
1 69544U 26134G   26176.14190169  .00005999  00000+0  37570-3 0  9993
2 69544  97.7048 246.2848 0014618 248.6000 111.3669 15.09671273  1503
2026-134H               
1 69545U 26134H   26176.20774736  .00006337  00000+0  39590-3 0  9990
2 69545  97.7032 246.3503 0014478 249.7774 110.1899 15.09738918  1502
STARLINK-37880          
1 69546U 26135A   26176.16667823 -.00072242  00000+0 -37872-3 0  9996
2 69546  97.2837 203.6231 0001149  88.8710 126.4427 15.80863032  2590
STARLINK-37881          
1 69547U 26135B   26176.16667823 -.00101225  00000+0 -53249-3 0  9997
2 69547  97.2837 203.6240 0001104  72.7731 145.7748 15.80872739  2591
STARLINK-37265          
1 69548U 26135C   26176.16667823 -.00087772  00000+0 -46100-3 0  9996
2 69548  97.2837 203.6252 0001193  81.8787 140.4961 15.80868310  2594
